{"fetched_at":"2026-03-29T02:12:04Z","count":15717,"tles":[{"name":"STARLINK-11338 [DTC]","line1":"1 61534U 24184C   26087.45126926  .00001979  00000+0  21191-4 0  9999","line2":"2 61534  53.1593 143.8086 0001187  95.4196 264.6957 15.69706973 83360","category":"Starlink"}]}